[{"OBJECT_NAME":"ONEWEB-0572","OBJECT_ID":"2023-004M","EPOCH":"2025-10-29T08:52:17.059296","MEAN_MOTION":13.17648764,"ECCENTRICITY":0.000186,"INCLINATION":87.9127,"RA_OF_ASC_NODE":51.7644,"ARG_OF_PERICENTER":97.2567,"MEAN_ANOMALY":262.8776,"EPHEMERIS_TYPE":0,"CLASSIFICATION_TYPE":"U","NORAD_CAT_ID":55151,"ELEMENT_SET_NO":999,"REV_AT_EPOCH":13708,"BSTAR":0.00032029,"MEAN_MOTION_DOT":1.37e-6,"MEAN_MOTION_DDOT":0},{"OBJECT_NAME":"ONEWEB-0573","OBJECT_ID":"2023-004N","EPOCH":"2025-10-29T10:47:41.172576","MEAN_MOTION":13.18686867,"ECCENTRICITY":0.0002435,"INCLINATION":87.9212,"RA_OF_ASC_NODE":21.3241,"ARG_OF_PERICENTER":84.5018,"MEAN_ANOMALY":275.6392,"EPHEMERIS_TYPE":0,"CLASSIFICATION_TYPE":"U","NORAD_CAT_ID":55152,"ELEMENT_SET_NO":999,"REV_AT_EPOCH":13928,"BSTAR":0.00015315,"MEAN_MOTION_DOT":7.3e-7,"MEAN_MOTION_DDOT":0},{"OBJECT_NAME":"ONEWEB-0588","OBJECT_ID":"2023-004P","EPOCH":"2025-10-29T05:10:23.576160","MEAN_MOTION":13.18686106,"ECCENTRICITY":0.000193,"INCLINATION":87.9221,"RA_OF_ASC_NODE":21.3607,"ARG_OF_PERICENTER":87.1579,"MEAN_ANOMALY":272.9774,"EPHEMERIS_TYPE":0,"CLASSIFICATION_TYPE":"U","NORAD_CAT_ID":55153,"ELEMENT_SET_NO":999,"REV_AT_EPOCH":13925,"BSTAR":0.00010182,"MEAN_MOTION_DOT":5.3e-7,"MEAN_MOTION_DDOT":0},{"OBJECT_NAME":"ONEWEB-0598","OBJECT_ID":"2023-004Q","EPOCH":"2025-10-29T08:42:01.986336","MEAN_MOTION":13.1141377,"ECCENTRICITY":0.0002234,"INCLINATION":87.8836,"RA_OF_ASC_NODE":67.0445,"ARG_OF_PERICENTER":100.6526,"MEAN_ANOMALY":259.4854,"EPHEMERIS_TYPE":0,"CLASSIFICATION_TYPE":"U","NORAD_CAT_ID":55154,"ELEMENT_SET_NO":999,"REV_AT_EPOCH":13564,"BSTAR":-0.00011716,"MEAN_MOTION_DOT":-2.9e-7,"MEAN_MOTION_DDOT":0},{"OBJECT_NAME":"ONEWEB-0599","OBJECT_ID":"2023-004R","EPOCH":"2025-10-29T07:56:23.039808","MEAN_MOTION":13.17650007,"ECCENTRICITY":0.0001841,"INCLINATION":87.9126,"RA_OF_ASC_NODE":51.7755,"ARG_OF_PERICENTER":104.4864,"MEAN_ANOMALY":255.6472,"EPHEMERIS_TYPE":0,"CLASSIFICATION_TYPE":"U","NORAD_CAT_ID":55155,"ELEMENT_SET_NO":999,"REV_AT_EPOCH":13708,"BSTAR":0.00033672,"MEAN_MOTION_DOT":1.44e-6,"MEAN_MOTION_DDOT":0},{"OBJECT_NAME":"ONEWEB-0614","OBJECT_ID":"2023-004S","EPOCH":"2025-10-29T08:34:43.535712","MEAN_MOTION":13.11415665,"ECCENTRICITY":0.0001379,"INCLINATION":87.8836,"RA_OF_ASC_NODE":67.0551,"ARG_OF_PERICENTER":88.1628,"MEAN_ANOMALY":271.9658,"EPHEMERIS_TYPE":0,"CLASSIFICATION_TYPE":"U","NORAD_CAT_ID":55156,"ELEMENT_SET_NO":999,"REV_AT_EPOCH":13558,"BSTAR":0.00062452,"MEAN_MOTION_DOT":2.34e-6,"MEAN_MOTION_DDOT":0},{"OBJECT_NAME":"ONEWEB-0616","OBJECT_ID":"2023-004T","EPOCH":"2025-10-29T08:57:08.616096","MEAN_MOTION":13.17654466,"ECCENTRICITY":0.0002112,"INCLINATION":87.9124,"RA_OF_ASC_NODE":51.7577,"ARG_OF_PERICENTER":132.0456,"MEAN_ANOMALY":228.0856,"EPHEMERIS_TYPE":0,"CLASSIFICATION_TYPE":"U","NORAD_CAT_ID":55157,"ELEMENT_SET_NO":999,"REV_AT_EPOCH":13730,"BSTAR":-0.0027469,"MEAN_MOTION_DOT":-1.054e-5,"MEAN_MOTION_DDOT":0},{"OBJECT_NAME":"ONEWEB-0617","OBJECT_ID":"2023-004U","EPOCH":"2025-10-29T10:07:29.339040","MEAN_MOTION":13.11417862,"ECCENTRICITY":0.0001621,"INCLINATION":87.8837,"RA_OF_ASC_NODE":67.0208,"ARG_OF_PERICENTER":85.8387,"MEAN_ANOMALY":274.2926,"EPHEMERIS_TYPE":0,"CLASSIFICATION_TYPE":"U","NORAD_CAT_ID":55158,"ELEMENT_SET_NO":999,"REV_AT_EPOCH":13561,"BSTAR":0.0016125,"MEAN_MOTION_DOT":5.84e-6,"MEAN_MOTION_DDOT":0},{"OBJECT_NAME":"ONEWEB-0618","OBJECT_ID":"2023-004V","EPOCH":"2025-10-29T08:45:49.201920","MEAN_MOTION":15.09642201,"ECCENTRICITY":0.0016724,"INCLINATION":86.9056,"RA_OF_ASC_NODE":271.1868,"ARG_OF_PERICENTER":72.5621,"MEAN_ANOMALY":287.7444,"EPHEMERIS_TYPE":0,"CLASSIFICATION_TYPE":"U","NORAD_CAT_ID":55159,"ELEMENT_SET_NO":999,"REV_AT_EPOCH":14739,"BSTAR":0.00044357,"MEAN_MOTION_DOT":7.188e-5,"MEAN_MOTION_DDOT":0},{"OBJECT_NAME":"ONEWEB-0619","OBJECT_ID":"2023-004W","EPOCH":"2025-10-29T13:22:00.079104","MEAN_MOTION":13.17648675,"ECCENTRICITY":0.0001238,"INCLINATION":87.9126,"RA_OF_ASC_NODE":51.6955,"ARG_OF_PERICENTER":106.8742,"MEAN_ANOMALY":253.2525,"EPHEMERIS_TYPE":0,"CLASSIFICATION_TYPE":"U","NORAD_CAT_ID":55160,"ELEMENT_SET_NO":999,"REV_AT_EPOCH":13722,"BSTAR":0.00025051,"MEAN_MOTION_DOT":1.1e-6,"MEAN_MOTION_DDOT":0},{"OBJECT_NAME":"ONEWEB-0620","OBJECT_ID":"2023-004X","EPOCH":"2025-10-29T10:00:09.708192","MEAN_MOTION":13.11418539,"ECCENTRICITY":0.0001791,"INCLINATION":87.8833,"RA_OF_ASC_NODE":67.0419,"ARG_OF_PERICENTER":93.9956,"MEAN_ANOMALY":266.1377,"EPHEMERIS_TYPE":0,"CLASSIFICATION_TYPE":"U","NORAD_CAT_ID":55161,"ELEMENT_SET_NO":999,"REV_AT_EPOCH":13558,"BSTAR":0.0015749,"MEAN_MOTION_DOT":5.71e-6,"MEAN_MOTION_DDOT":0},{"OBJECT_NAME":"ONEWEB-0621","OBJECT_ID":"2023-004Y","EPOCH":"2025-10-29T08:49:21.686304","MEAN_MOTION":13.11414728,"ECCENTRICITY":0.0001372,"INCLINATION":87.8849,"RA_OF_ASC_NODE":67.0174,"ARG_OF_PERICENTER":96.7833,"MEAN_ANOMALY":263.3451,"EPHEMERIS_TYPE":0,"CLASSIFICATION_TYPE":"U","NORAD_CAT_ID":55162,"ELEMENT_SET_NO":999,"REV_AT_EPOCH":13555,"BSTAR":-0.00072021,"MEAN_MOTION_DOT":-2.43e-6,"MEAN_MOTION_DDOT":0},{"OBJECT_NAME":"ONEWEB-0622","OBJECT_ID":"2023-004Z","EPOCH":"2025-10-29T08:56:41.094240","MEAN_MOTION":13.11417345,"ECCENTRICITY":0.0001633,"INCLINATION":87.8836,"RA_OF_ASC_NODE":67.0302,"ARG_OF_PERICENTER":71.189,"MEAN_ANOMALY":288.9415,"EPHEMERIS_TYPE":0,"CLASSIFICATION_TYPE":"U","NORAD_CAT_ID":55163,"ELEMENT_SET_NO":999,"REV_AT_EPOCH":13554,"BSTAR":-0.0010778,"MEAN_MOTION_DOT":-3.69e-6,"MEAN_MOTION_DDOT":0},{"OBJECT_NAME":"ONEWEB-0623","OBJECT_ID":"2023-004AA","EPOCH":"2025-10-29T13:14:43.003968","MEAN_MOTION":13.17651762,"ECCENTRICITY":0.0001226,"INCLINATION":87.9118,"RA_OF_ASC_NODE":51.7491,"ARG_OF_PERICENTER":76.1869,"MEAN_ANOMALY":283.9399,"EPHEMERIS_TYPE":0,"CLASSIFICATION_TYPE":"U","NORAD_CAT_ID":55164,"ELEMENT_SET_NO":999,"REV_AT_EPOCH":13721,"BSTAR":0.00010088,"MEAN_MOTION_DOT":5.2e-7,"MEAN_MOTION_DDOT":0},{"OBJECT_NAME":"ONEWEB-0624","OBJECT_ID":"2023-004AB","EPOCH":"2025-10-29T12:13:38.646048","MEAN_MOTION":13.12916767,"ECCENTRICITY":0.0001518,"INCLINATION":87.8965,"RA_OF_ASC_NODE":36.4584,"ARG_OF_PERICENTER":95.5013,"MEAN_ANOMALY":264.6289,"EPHEMERIS_TYPE":0,"CLASSIFICATION_TYPE":"U","NORAD_CAT_ID":55165,"ELEMENT_SET_NO":999,"REV_AT_EPOCH":13780,"BSTAR":-0.00023637,"MEAN_MOTION_DOT":-7.3e-7,"MEAN_MOTION_DDOT":0},{"OBJECT_NAME":"ONEWEB-0625","OBJECT_ID":"2023-004AC","EPOCH":"2025-10-29T13:00:07.140384","MEAN_MOTION":13.17651737,"ECCENTRICITY":0.0001724,"INCLINATION":87.9118,"RA_OF_ASC_NODE":51.747,"ARG_OF_PERICENTER":105.2956,"MEAN_ANOMALY":254.8366,"EPHEMERIS_TYPE":0,"CLASSIFICATION_TYPE":"U","NORAD_CAT_ID":55166,"ELEMENT_SET_NO":999,"REV_AT_EPOCH":13720,"BSTAR":-0.00065857,"MEAN_MOTION_DOT":-2.43e-6,"MEAN_MOTION_DDOT":0},{"OBJECT_NAME":"ONEWEB-0626","OBJECT_ID":"2023-004AD","EPOCH":"2025-10-29T09:06:52.014816","MEAN_MOTION":13.17649792,"ECCENTRICITY":0.000221,"INCLINATION":87.9118,"RA_OF_ASC_NODE":51.7784,"ARG_OF_PERICENTER":98.4747,"MEAN_ANOMALY":261.6635,"EPHEMERIS_TYPE":0,"CLASSIFICATION_TYPE":"U","NORAD_CAT_ID":55167,"ELEMENT_SET_NO":999,"REV_AT_EPOCH":13718,"BSTAR":0.00025669,"MEAN_MOTION_DOT":1.13e-6,"MEAN_MOTION_DDOT":0}]
