ONEWEB-0572             
1 55151U 23004M   25302.36964189  .00000137  00000+0  32029-3 0  9993
2 55151  87.9127  51.7644 0001860  97.2567 262.8776 13.17648764137085
ONEWEB-0573             
1 55152U 23004N   25302.44978209  .00000073  00000+0  15315-3 0  9999
2 55152  87.9212  21.3241 0002435  84.5018 275.6392 13.18686867139283
ONEWEB-0588             
1 55153U 23004P   25302.21555065  .00000053  00000+0  10182-3 0  9991
2 55153  87.9221  21.3607 0001930  87.1579 272.9774 13.18686106139257
ONEWEB-0598             
1 55154U 23004Q   25302.36252299 -.00000029  00000+0 -11716-3 0  9990
2 55154  87.8836  67.0445 0002234 100.6526 259.4854 13.11413770135643
ONEWEB-0599             
1 55155U 23004R   25302.33082222  .00000144  00000+0  33672-3 0  9996
2 55155  87.9126  51.7755 0001841 104.4864 255.6472 13.17650007137087
ONEWEB-0614             
1 55156U 23004S   25302.35744833  .00000234  00000+0  62452-3 0  9990
2 55156  87.8836  67.0551 0001379  88.1628 271.9658 13.11415665135584
ONEWEB-0616             
1 55157U 23004T   25302.37301639 -.00001054  00000+0 -27469-2 0  9997
2 55157  87.9124  51.7577 0002112 132.0456 228.0856 13.17654466137303
ONEWEB-0617             
1 55158U 23004U   25302.42186735  .00000584  00000+0  16125-2 0  9994
2 55158  87.8837  67.0208 0001621  85.8387 274.2926 13.11417862135611
ONEWEB-0618             
1 55159U 23004V   25302.36515280  .00007188  00000+0  44357-3 0  9995
2 55159  86.9056 271.1868 0016724  72.5621 287.7444 15.09642201147397
ONEWEB-0619             
1 55160U 23004W   25302.55694536  .00000110  00000+0  25051-3 0  9998
2 55160  87.9126  51.6955 0001238 106.8742 253.2525 13.17648675137222
ONEWEB-0620             
1 55161U 23004X   25302.41677903  .00000571  00000+0  15749-2 0  9996
2 55161  87.8833  67.0419 0001791  93.9956 266.1377 13.11418539135583
ONEWEB-0621             
1 55162U 23004Y   25302.36761211 -.00000243  00000+0 -72021-3 0  9992
2 55162  87.8849  67.0174 0001372  96.7833 263.3451 13.11414728135554
ONEWEB-0622             
1 55163U 23004Z   25302.37269785 -.00000369  00000+0 -10778-2 0  9992
2 55163  87.8836  67.0302 0001633  71.1890 288.9415 13.11417345135544
ONEWEB-0623             
1 55164U 23004AA  25302.55188662  .00000052  00000+0  10088-3 0  9999
2 55164  87.9118  51.7491 0001226  76.1869 283.9399 13.17651762137218
ONEWEB-0624             
1 55165U 23004AB  25302.50947507 -.00000073  00000+0 -23637-3 0  9995
2 55165  87.8965  36.4584 0001518  95.5013 264.6289 13.12916767137804
ONEWEB-0625             
1 55166U 23004AC  25302.54174931 -.00000243  00000+0 -65857-3 0  9992
2 55166  87.9118  51.7470 0001724 105.2956 254.8366 13.17651737137203
ONEWEB-0626             
1 55167U 23004AD  25302.37976869  .00000113  00000+0  25669-3 0  9995
2 55167  87.9118  51.7784 0002210  98.4747 261.6635 13.17649792137184
